{"type": "FeatureCollection", "features": [ {"type": "Feature", "properties": {"norad_id": 66656, "name": "2025-274G", "group": "last-30-days", "lat": 66.93752652234456, "lon": -95.11647390755334, "alt_km": 592.1112236144145, "timestamp": "2025-12-22T11:33:19.153781+00:00", "meta": {"OBJECT_NAME": "2025-274G", "OBJECT_ID": "2025-274G", "EPOCH": "2025-12-21T17:32:54.746880", "MEAN_MOTION": 14.92320827, "ECCENTRICITY": 0.0012759, "INCLINATION": 97.7402, "RA_OF_ASC_NODE": 282.7763, "ARG_OF_PERICENTER": 223.881, "MEAN_ANOMALY": 136.1396, "EPHEMERIS_TYPE": 0, "CLASSIFICATION_TYPE": "U", "NORAD_CAT_ID": 66656, "ELEMENT_SET_NO": 999, "REV_AT_EPOCH": 374, "BSTAR": 0.00021575, "MEAN_MOTION_DOT": 2.151e-05, "MEAN_MOTION_DDOT": 0}, "tle": {"line1": "1 66656U 25274G   25355.73118920  .00002151  00000+0  21575-3 0  9991", "line2": "2 66656  97.7402 282.7763 0012759 223.8810 136.1396 14.92320827  3744"}}, "geometry": {"type": "Point", "coordinates": [-95.11647390755334, 66.93752652234456]}}, {"type": "Feature", "properties": {"norad_id": 66657, "name": "SPIRONE", "group": "last-30-days", "lat": 80.71296351937717, "lon": -132.75750042152143, "alt_km": 589.5624296711048, "timestamp": "2025-12-22T11:33:19.153791+00:00", "meta": {"OBJECT_NAME": "SPIRONE", "OBJECT_ID": "2025-274H", "EPOCH": "2025-12-21T19:05:07.694016", "MEAN_MOTION": 14.92499903, "ECCENTRICITY": 0.0010872, "INCLINATION": 97.74, "RA_OF_ASC_NODE": 282.8455, "ARG_OF_PERICENTER": 241.7051, "MEAN_ANOMALY": 118.3071, "EPHEMERIS_TYPE": 0, "CLASSIFICATION_TYPE": "U", "NORAD_CAT_ID": 66657, "ELEMENT_SET_NO": 999, "REV_AT_EPOCH": 375, "BSTAR": 0.00020534, "MEAN_MOTION_DOT": 2.053e-05, "MEAN_MOTION_DDOT": 0}, "tle": {"line1": "1 66657U 25274H   25355.79522794  .00002053  00000+0  20534-3 0  9991", "line2": "2 66657  97.7400 282.8455 0010872 241.7051 118.3071 14.92499903  3757"}}, "geometry": {"type": "Point", "coordinates": [-132.75750042152143, 80.71296351937717]}}, {"type": "Feature", "properties": {"norad_id": 66658, "name": "2025-274J", "group": "last-30-days", "lat": 76.67886689941675, "lon": 138.58535824580704, "alt_km": 588.622589639006, "timestamp": "2025-12-22T11:33:19.153803+00:00", "meta": {"OBJECT_NAME": "2025-274J", "OBJECT_ID": "2025-274J", "EPOCH": "2025-12-21T19:00:56.741760", "MEAN_MOTION": 14.92669737, "ECCENTRICITY": 0.0011392, "INCLINATION": 97.74, "RA_OF_ASC_NODE": 282.8494, "ARG_OF_PERICENTER": 244.9965, "MEAN_ANOMALY": 115.0071, "EPHEMERIS_TYPE": 0, "CLASSIFICATION_TYPE": "U", "NORAD_CAT_ID": 66658, "ELEMENT_SET_NO": 999, "REV_AT_EPOCH": 375, "BSTAR": 0.00019012, "MEAN_MOTION_DOT": 1.905e-05, "MEAN_MOTION_DDOT": 0}, "tle": {"line1": "1 66658U 25274J   25355.79232340  .00001905  00000+0  19012-3 0  9991", "line2": "2 66658  97.7400 282.8494 0011392 244.9965 115.0071 14.92669737  3756"}}, "geometry": {"type": "Point", "coordinates": [138.58535824580704, 76.67886689941675]}}, {"type": "Feature", "properties": {"norad_id": 66659, "name": "JACK K", "group": "last-30-days", "lat": 60.97579558008068, "lon": 117.72426727661478, "alt_km": 588.113259109844, "timestamp": "2025-12-22T11:33:19.153815+00:00", "meta": {"OBJECT_NAME": "JACK K", "OBJECT_ID": "2025-274K", "EPOCH": "2025-12-21T17:19:56.314848", "MEAN_MOTION": 14.9285397, "ECCENTRICITY": 0.0012082, "INCLINATION": 97.7401, "RA_OF_ASC_NODE": 282.7883, "ARG_OF_PERICENTER": 246.938, "MEAN_ANOMALY": 113.0566, "EPHEMERIS_TYPE": 0, "CLASSIFICATION_TYPE": "U", "NORAD_CAT_ID": 66659, "ELEMENT_SET_NO": 999, "REV_AT_EPOCH": 374, "BSTAR": 0.00017376, "MEAN_MOTION_DOT": 1.745e-05, "MEAN_MOTION_DDOT": 0}, "tle": {"line1": "1 66659U 25274K   25355.72217957  .00001745  00000+0  17376-3 0  9995", "line2": "2 66659  97.7401 282.7883 0012082 246.9380 113.0566 14.92853970  3749"}}, "geometry": {"type": "Point", "coordinates": [117.72426727661478, 60.97579558008068]}}, {"type": "Feature", "properties": {"norad_id": 66660, "name": "K-HERO", "group": "last-30-days", "lat": 47.43967971409484, "lon": 112.06054777717523, "alt_km": 587.870740518395, "timestamp": "2025-12-22T11:33:19.153825+00:00", "meta": {"OBJECT_NAME": "K-HERO", "OBJECT_ID": "2025-274L", "EPOCH": "2025-12-21T18:52:49.431936", "MEAN_MOTION": 14.93004773, "ECCENTRICITY": 0.0012696, "INCLINATION": 97.7407, "RA_OF_ASC_NODE": 282.8586, "ARG_OF_PERICENTER": 247.4732, "MEAN_ANOMALY": 112.5144, "EPHEMERIS_TYPE": 0, "CLASSIFICATION_TYPE": "U", "NORAD_CAT_ID": 66660, "ELEMENT_SET_NO": 999, "REV_AT_EPOCH": 375, "BSTAR": 0.00016091, "MEAN_MOTION_DOT": 1.618e-05, "MEAN_MOTION_DDOT": 0}, "tle": {"line1": "1 66660U 25274L   25355.78668324  .00001618  00000+0  16091-3 0  9993", "line2": "2 66660  97.7407 282.8586 0012696 247.4732 112.5144 14.93004773  3753"}}, "geometry": {"type": "Point", "coordinates": [112.06054777717523, 47.43967971409484]}}, {"type": "Feature", "properties": {"norad_id": 66661, "name": "SNUGLITE-III", "group": "last-30-days", "lat": 34.30565293774334, "lon": 108.87195068211848, "alt_km": 587.7658723427767, "timestamp": "2025-12-22T11:33:19.153835+00:00", "meta": {"OBJECT_NAME": "SNUGLITE-III", "OBJECT_ID": "2025-274M", "EPOCH": "2025-12-21T17:12:49.999968", "MEAN_MOTION": 14.93139357, "ECCENTRICITY": 0.0013285, "INCLINATION": 97.7404, "RA_OF_ASC_NODE": 282.7951, "ARG_OF_PERICENTER": 249.0325, "MEAN_ANOMALY": 110.9473, "EPHEMERIS_TYPE": 0, "CLASSIFICATION_TYPE": "U", "NORAD_CAT_ID": 66661, "ELEMENT_SET_NO": 999, "REV_AT_EPOCH": 374, "BSTAR": 0.00016291, "MEAN_MOTION_DOT": 1.645e-05, "MEAN_MOTION_DDOT": 0}, "tle": {"line1": "1 66661U 25274M   25355.71724537  .00001645  00000+0  16291-3 0  9998", "line2": "2 66661  97.7404 282.7951 0013285 249.0325 110.9473 14.93139357  3740"}}, "geometry": {"type": "Point", "coordinates": [108.87195068211848, 34.30565293774334]}}, {"type": "Feature", "properties": {"norad_id": 66662, "name": "2025-274N", "group": "last-30-days", "lat": 29.10372359467171, "lon": 107.89212754792578, "alt_km": 587.5844834316094, "timestamp": "2025-12-22T11:33:19.153847+00:00", "meta": {"OBJECT_NAME": "2025-274N", "OBJECT_ID": "2025-274N", "EPOCH": "2025-12-21T18:47:57.458688", "MEAN_MOTION": 14.93194848, "ECCENTRICITY": 0.001373, "INCLINATION": 97.7407, "RA_OF_ASC_NODE": 282.8625, "ARG_OF_PERICENTER": 248.6058, "MEAN_ANOMALY": 111.3697, "EPHEMERIS_TYPE": 0, "CLASSIFICATION_TYPE": "U", "NORAD_CAT_ID": 66662, "ELEMENT_SET_NO": 999, "REV_AT_EPOCH": 375, "BSTAR": 0.00015255, "MEAN_MOTION_DOT": 1.539e-05, "MEAN_MOTION_DDOT": 0}, "tle": {"line1": "1 66662U 25274N   25355.78330392  .00001539  00000+0  15255-3 0  9999", "line2": "2 66662  97.7407 282.8625 0013730 248.6058 111.3697 14.93194848  3756"}}, "geometry": {"type": "Point", "coordinates": [107.89212754792578, 29.10372359467171]}}, {"type": "Feature", "properties": {"norad_id": 66663, "name": "KSLV-II R/B", "group": "last-30-days", "lat": -0.46601905838426755, "lon": 103.6705767148218, "alt_km": 588.247499719485, "timestamp": "2025-12-22T11:33:19.153857+00:00", "meta": {"OBJECT_NAME": "KSLV-II R/B", "OBJECT_ID": "2025-274P", "EPOCH": "2025-12-22T01:07:29.294976", "MEAN_MOTION": 14.97514647, "ECCENTRICITY": 0.0059492, "INCLINATION": 97.7422, "RA_OF_ASC_NODE": 283.3033, "ARG_OF_PERICENTER": 286.9981, "MEAN_ANOMALY": 72.4727, "EPHEMERIS_TYPE": 0, "CLASSIFICATION_TYPE": "U", "NORAD_CAT_ID": 66663, "ELEMENT_SET_NO": 999, "REV_AT_EPOCH": 380, "BSTAR": 0.0016589, "MEAN_MOTION_DOT": 0.00020039, "MEAN_MOTION_DDOT": 0}, "tle": {"line1": "1 66663U 25274P   25356.04686684  .00020039  00000+0  16589-2 0  9994", "line2": "2 66663  97.7422 283.3033 0059492 286.9981  72.4727 14.97514647  3802"}}, "geometry": {"type": "Point", "coordinates": [103.6705767148218, -0.46601905838426755]}}, {"type": "Feature", "properties": {"norad_id": 66664, "name": "SOYUZ-MS 28", "group": "last-30-days", "lat": 37.537041524626865, "lon": 131.73093440696377, "alt_km": 413.77350588753416, "timestamp": "2025-12-22T11:33:19.153867+00:00", "meta": {"OBJECT_NAME": "SOYUZ-MS 28", "OBJECT_ID": "2025-275A", "EPOCH": "2025-12-21T16:45:51.816096", "MEAN_MOTION": 15.49707977, "ECCENTRICITY": 0.000316, "INCLINATION": 51.6324, "RA_OF_ASC_NODE": 98.1136, "ARG_OF_PERICENTER": 282.2378, "MEAN_ANOMALY": 77.8256, "EPHEMERIS_TYPE": 0, "CLASSIFICATION_TYPE": "U", "NORAD_CAT_ID": 66664, "ELEMENT_SET_NO": 999, "REV_AT_EPOCH": 383, "BSTAR": 0.00019136, "MEAN_MOTION_DOT": 0.0001037, "MEAN_MOTION_DDOT": 0}, "tle": {"line1": "1 66664U 25275A   25355.69851639  .00010370  00000+0  19136-3 0  9999", "line2": "2 66664  51.6324  98.1136 0003160 282.2378  77.8256 15.49707977  3836"}}, "geometry": {"type": "Point", "coordinates": [131.73093440696377, 37.537041524626865]}}, {"type": "Feature", "properties": {"norad_id": 66666, "name": "FORMOSAT-8A", "group": "last-30-days", "lat": -80.97488575982473, "lon": -169.61801068552958, "alt_km": 572.3438620299748, "timestamp": "2025-12-22T11:33:19.153878+00:00", "meta": {"OBJECT_NAME": "FORMOSAT-8A", "OBJECT_ID": "2025-276A", "EPOCH": "2025-12-22T03:58:27.513408", "MEAN_MOTION": 15.00342498, "ECCENTRICITY": 0.000381, "INCLINATION": 97.658, "RA_OF_ASC_NODE": 67.9707, "ARG_OF_PERICENTER": 194.8508, "MEAN_ANOMALY": 165.2604, "EPHEMERIS_TYPE": 0, "CLASSIFICATION_TYPE": "U", "NORAD_CAT_ID": 66666, "ELEMENT_SET_NO": 999, "REV_AT_EPOCH": 350, "BSTAR": 0.00045868, "MEAN_MOTION_DOT": 5.698e-05, "MEAN_MOTION_DDOT": 0}, "tle": {"line1": "1 66666U 25276A   25356.16559622  .00005698  00000+0  45868-3 0  9990", "line2": "2 66666  97.6580  67.9707 0003810 194.8508 165.2604 15.00342498  3508"}}, "geometry": {"type": "Point", "coordinates": [-169.61801068552958, -80.97488575982473]}}]}